[{"OBJECT_NAME":"QIANFAN-101","OBJECT_ID":"2025-233L","EPOCH":"2026-03-09T23:40:08.087808","MEAN_MOTION":14.26740528,"ECCENTRICITY":0.00171671,"INCLINATION":88.9944,"RA_OF_ASC_NODE":51.9499,"ARG_OF_PERICENTER":106.3437,"MEAN_ANOMALY":253.9646,"EPHEMERIS_TYPE":0,"CLASSIFICATION_TYPE":"U","NORAD_CAT_ID":66043,"ELEMENT_SET_NO":999,"REV_AT_EPOCH":2048,"BSTAR":0.00028904417,"MEAN_MOTION_DOT":7.15e-6,"MEAN_MOTION_DDOT":0},{"OBJECT_NAME":"DELTA 1 DEB","OBJECT_ID":"1977-065EW","EPOCH":"2026-03-08T18:18:32.868288","MEAN_MOTION":13.44989458,"ECCENTRICITY":0.05726216,"INCLINATION":28.9679,"RA_OF_ASC_NODE":242.8396,"ARG_OF_PERICENTER":22.4732,"MEAN_ANOMALY":339.9894,"EPHEMERIS_TYPE":0,"CLASSIFICATION_TYPE":"U","NORAD_CAT_ID":10627,"ELEMENT_SET_NO":999,"REV_AT_EPOCH":31672,"BSTAR":0.0019221015,"MEAN_MOTION_DOT":3.177e-5,"MEAN_MOTION_DDOT":0}]
